STARLINK-1999_new
1 17594C 21009AY  21326.13159491  .00007654  00000-0  51285-3 0  3268
2 17594  53.0549 243.1574 0001943  64.3832 254.4987 15.06387612    15
STARLINK-1999_old
1 27594C 21009AY  21325.16022682 -.00017278  00000-0 -11576-2 0  3253
2 27594  53.0554 247.5176 0001973  63.1267  25.0574 15.06418171    18
